[{"OBJECT_NAME":"STARLINK-30382","OBJECT_ID":"2023-134R","EPOCH":"2026-03-09T09:09:23.129280","MEAN_MOTION":15.26740595,"ECCENTRICITY":0.00012881,"INCLINATION":43,"RA_OF_ASC_NODE":195.885,"ARG_OF_PERICENTER":255.3449,"MEAN_ANOMALY":104.7259,"EPHEMERIS_TYPE":0,"CLASSIFICATION_TYPE":"U","NORAD_CAT_ID":57786,"ELEMENT_SET_NO":999,"REV_AT_EPOCH":13946,"BSTAR":1.4912789e-5,"MEAN_MOTION_DOT":1.4e-6,"MEAN_MOTION_DDOT":0},{"OBJECT_NAME":"TRANSPORTER-12 OBJECT BA","OBJECT_ID":"2025-009BA","EPOCH":"2026-03-09T16:49:42.568896","MEAN_MOTION":15.27214003,"ECCENTRICITY":4.03e-5,"INCLINATION":97.3985,"RA_OF_ASC_NODE":151.139,"ARG_OF_PERICENTER":234.6623,"MEAN_ANOMALY":125.4579,"EPHEMERIS_TYPE":0,"CLASSIFICATION_TYPE":"U","NORAD_CAT_ID":62657,"ELEMENT_SET_NO":999,"REV_AT_EPOCH":6373,"BSTAR":0.00042732654,"MEAN_MOTION_DOT":0.0001133,"MEAN_MOTION_DDOT":0}]
